NORAD_CAT_ID,OBJECT_NAME,OBJECT_TYPE,EPOCH,MEAN_MOTION,ECCENTRICITY,INCLINATION,RA_OF_ASC_NODE,ARG_OF_PERICENTER,MEAN_ANOMALY,BSTAR,MEAN_MOTION_DOT,MEAN_MOTION_DDOT,TLE_LINE0,TLE_LINE1,TLE_LINE2,SEMIMAJOR_AXIS,PERIOD,APOGEE,PERIGEE,DECAYED
52283.0,STARLINK-3789,PAYLOAD,2024-02-03 17:22:11,15.08838641,0.0001498,53.2181,303.1906,111.7727,248.3425,3.7438e-05,3.08e-06,0.0,0 STARLINK-3789,1 52283U 22041Y   24034.72374303  .00000308  00000-0  37438-4 0  9991,2 52283  53.2181 303.1906 0001498 111.7727 248.3425 15.08838641100106,6917.885,95.438,540.786,538.713,0.0
52283.0,STARLINK-3789,PAYLOAD,2024-02-03 22:08:20,15.08838432,0.0001396,53.2177,302.2987,95.7464,264.3687,2.6809e-05,1.39e-06,0.0,0 STARLINK-3789,1 52283U 22041Y   24034.92246411  .00000139  00000-0  26809-4 0  9993,2 52283  53.2177 302.2987 0001396  95.7464 264.3687 15.08838432 98917,6917.885,95.438,540.716,538.784,0.0
52283.0,STARLINK-3789,PAYLOAD,2024-02-04 01:19:06,15.08841444,0.00015,53.218,301.7039,87.1238,272.9926,6.6124e-05,7.65e-06,0.0,0 STARLINK-3789,1 52283U 22041Y   24035.05494190  .00000765  00000-0  66124-4 0  9996,2 52283  53.2180 301.7039 0001500  87.1238 272.9926 15.08841444 98934,6917.876,95.437,540.779,538.703,0.0
52283.0,STARLINK-3789,PAYLOAD,2024-02-04 21:59:07,15.08842513,0.0001593,53.2174,297.8388,80.444,279.6732,1.2721e-05,-8.6e-07,0.0,0 STARLINK-3789,1 52283U 22041Y   24035.91606345 -.00000086  00000-0  12721-4 0  9999,2 52283  53.2174 297.8388 0001593  80.4440 279.6732 15.08842513 99064,6917.873,95.437,540.84,538.636,0.0
52283.0,STARLINK-3789,PAYLOAD,2024-02-05 02:45:16,15.08847745,0.0001528,53.2181,296.9463,84.581,275.5356,6.8318e-05,8e-06,0.0,0 STARLINK-3789,1 52283U 22041Y   24036.11477785  .00000800  00000-0  68318-4 0  9992,2 52283  53.2181 296.9463 0001528  84.5810 275.5356 15.08847745100310,6917.857,95.437,540.779,538.665,0.0
52283.0,STARLINK-3789,PAYLOAD,2024-02-05 10:42:12,15.08845978,0.000133,53.2175,295.4557,101.7732,258.341,9.9507e-06,-1.3e-06,0.0,0 STARLINK-3789,1 52283U 22041Y   24036.44597782 -.00000130  00000-0  99507-5 0  9990,2 52283  53.2175 295.4557 0001330 101.7732 258.3410 15.08845978 99141,6917.862,95.437,540.647,538.807,0.0
52283.0,STARLINK-3789,PAYLOAD,2024-02-05 21:49:54,15.08846849,0.0001367,53.2177,293.3737,103.931,256.1835,9.0066e-06,-1.45e-06,0.0,0 STARLINK-3789,1 52283U 22041Y   24036.90965829 -.00000145  00000-0  90066-5 0  9999,2 52283  53.2177 293.3737 0001367 103.9310 256.1835 15.08846849 99219,6917.859,95.437,540.67,538.779,0.0
52283.0,STARLINK-3789,PAYLOAD,2024-02-05 23:25:17,15.088468,0.000134,53.2171,293.0762,103.1007,257.0135,1.3411e-05,-7.4e-07,0.0,0 STARLINK-3789,1 52283U 22041Y   24036.97589774 -.00000074  00000-0  13411-4 0  9996,2 52283  53.2171 293.0762 0001340 103.1007 257.0135 15.08846800100442,6917.86,95.437,540.652,538.798,0.0
52283.0,STARLINK-3789,PAYLOAD,2024-02-06 20:05:18,15.0884256,0.000125,53.2156,289.212,97.8237,262.2897,-1.2607e-05,-4.89e-06,0.0,0 STARLINK-3789,1 52283U 22041Y   24037.83702091 -.00000489  00000-0 -12607-4 0  9998,2 52283  53.2156 289.2120 0001250  97.8237 262.2897 15.08842560100570,6917.873,95.437,540.602,538.873,0.0
52283.0,STARLINK-3789,PAYLOAD,2024-02-06 21:40:41,15.08844571,0.0001413,53.2171,288.9137,103.507,256.608,-1.4175e-06,-3.11e-06,0.0,0 STARLINK-3789,1 52283U 22041Y   24037.90325926 -.00000311  00000-0 -14175-5 0  9991,2 52283  53.2171 288.9137 0001413 103.5070 256.6080 15.08844571 99361,6917.866,95.437,540.709,538.754,0.0
52283.0,STARLINK-3789,PAYLOAD,2024-02-06 23:16:04,15.0884404,0.0001589,53.2183,288.6164,102.4813,257.6357,3.4994e-05,2.69e-06,0.0,0 STARLINK-3789,1 52283U 22041Y   24037.96949854  .00000269  00000-0  34994-4 0  9999,2 52283  53.2183 288.6164 0001589 102.4813 257.6357 15.08844040 99378,6917.868,95.437,540.832,538.634,0.0
52283.0,STARLINK-3789,PAYLOAD,2024-02-07 19:56:06,15.08832661,0.0001119,53.2188,284.7545,102.7255,257.3862,2.4774e-05,1.06e-06,0.0,0 STARLINK-3789,1 52283U 22041Y   24038.83062625  .00000106  00000-0  24774-4 0  9993,2 52283  53.2188 284.7545 0001119 102.7255 257.3862 15.08832661100721,6917.903,95.438,540.542,538.994,0.0
52283.0,STARLINK-3789,PAYLOAD,2024-02-07 21:31:29,15.08831384,0.0001039,53.2184,284.4572,101.2254,258.8855,2.0857e-05,4.4e-07,0.0,0 STARLINK-3789,1 52283U 22041Y   24038.89686714  .00000044  00000-0  20857-4 0  9999,2 52283  53.2184 284.4572 0001039 101.2254 258.8855 15.08831384 99511,6917.907,95.438,540.49,539.053,0.0
52283.0,STARLINK-3789,PAYLOAD,2024-02-08 08:39:11,15.08837747,0.0001332,53.2162,282.3722,93.9585,266.1559,3.3053e-05,2.38e-06,0.0,0 STARLINK-3789,1 52283U 22041Y   24039.36054499  .00000238  00000-0  33053-4 0  9998,2 52283  53.2162 282.3722 0001332  93.9585 266.1559 15.08837747 99580,6917.887,95.438,540.674,538.831,0.0
52283.0,STARLINK-3789,PAYLOAD,2024-02-08 21:22:16,15.08835047,0.0001375,53.2171,279.9939,95.5555,264.5594,-1.0272e-05,-4.51e-06,0.0,0 STARLINK-3789,1 52283U 22041Y   24039.89047041 -.00000451  00000-0 -10272-4 0  9998,2 52283  53.2171 279.9939 0001375  95.5555 264.5594 15.08835047 99665,6917.896,95.438,540.712,538.809,0.0
52283.0,STARLINK-3789,PAYLOAD,2024-02-09 21:13:03,15.08834812,0.0001391,53.2165,275.5335,94.3443,265.7708,5.3441e-05,5.63e-06,0.0,0 STARLINK-3789,1 52283U 22041Y   24040.88407312  .00000563  00000-0  53441-4 0  9997,2 52283  53.2165 275.5335 0001391  94.3443 265.7708 15.08834812 99817,6917.896,95.438,540.724,538.799,0.0
52283.0,STARLINK-3789,PAYLOAD,2024-02-10 19:28:27,15.08837262,0.0001382,53.2167,271.3731,92.2049,267.9101,9.2018e-05,1.177e-05,0.0,0 STARLINK-3789,1 52283U 22041Y   24041.81143430  .00001177  00000-0  92018-4 0  9994,2 52283  53.2167 271.3731 0001382  92.2049 267.9101 15.08837262101178,6917.889,95.438,540.71,538.798,0.0
52283.0,STARLINK-3789,PAYLOAD,2024-02-10 22:39:13,15.08845443,0.0001872,53.2172,270.7775,48.8946,311.2208,9.6955e-05,1.255e-05,0.0,0 STARLINK-3789,1 52283U 22041Y   24041.94391185  .00001255  00000-0  96955-4 0  9991,2 52283  53.2172 270.7775 0001872  48.8946 311.2208 15.08845443 99977,6917.864,95.437,541.024,538.434,0.0
52283.0,STARLINK-3789,PAYLOAD,2024-02-11 00:14:36,15.08851928,0.0001391,53.2167,270.4755,81.4395,278.6755,0.00013544,1.869e-05,0.0,0 STARLINK-3789,1 52283U 22041Y   24042.01014401  .00001869  00000-0  13544-3 0  9996,2 52283  53.2167 270.4755 0001391  81.4395 278.6755 15.08851928101201,6917.844,95.437,540.671,538.747,0.0
52283.0,STARLINK-3789,PAYLOAD,2024-02-11 19:19:14,15.08842116,0.0001745,53.2171,266.906,108.1766,251.9416,5.3551e-05,5.64e-06,0.0,0 STARLINK-3789,1 52283U 22041Y   24042.80503120  .00000564  00000-0  53551-4 0  9998,2 52283  53.2171 266.9060 0001745 108.1766 251.9416 15.08842116101327,6917.874,95.437,540.946,538.532,0.0
52283.0,STARLINK-3789,PAYLOAD,2024-02-11 22:30:00,15.08845108,0.0001525,53.2169,266.3178,85.1771,274.9395,0.00010308,1.353e-05,0.0,0 STARLINK-3789,1 52283U 22041Y   24042.93750811  .00001353  00000-0  10308-3 0  9992,2 52283  53.2169 266.3178 0001525  85.1771 274.9395 15.08845108100126,6917.865,95.437,540.785,538.675,0.0
52283.0,STARLINK-3789,PAYLOAD,2024-02-12 14:23:52,15.08845664,0.0001389,53.2165,263.3436,92.8398,267.2753,-6.2414e-05,-1.281e-05,0.0,0 STARLINK-3789,1 52283U 22041Y   24043.59991356 -.00001281  00000-0 -62414-4 0  9994,2 52283  53.2165 263.3436 0001389  92.8398 267.2753 15.08845664100225,6917.863,95.437,540.689,538.767,0.0
52283.0,STARLINK-3789,PAYLOAD,2024-02-12 20:45:25,15.08843626,0.0001368,53.2164,262.1524,95.3169,264.7979,-7.4538e-05,-1.474e-05,0.0,0 STARLINK-3789,1 52283U 22041Y   24043.86487371 -.00001474  00000-0 -74538-4 0  9995,2 52283  53.2164 262.1524 0001368  95.3169 264.7979 15.08843626100262,6917.869,95.437,540.681,538.788,0.0
52283.0,STARLINK-3789,PAYLOAD,2024-02-12 23:56:11,15.08844758,0.0001411,53.2166,261.5568,95.234,264.8813,-5.5378e-05,-1.169e-05,0.0,0 STARLINK-3789,1 52283U 22041Y   24043.99735214 -.00001169  00000-0 -55378-4 0  9993,2 52283  53.2166 261.5568 0001411  95.2340 264.8813 15.08844758101507,6917.866,95.437,540.707,538.755,0.0
52283.0,STARLINK-3789,PAYLOAD,2024-02-13 07:53:07,15.08842853,0.000144,53.2166,260.0702,92.6524,267.4633,-6.2142e-05,-1.277e-05,0.0,0 STARLINK-3789,1 52283U 22041Y   24044.32855383 -.00001277  00000-0 -62142-4 0  9998,2 52283  53.2166 260.0702 0001440  92.6524 267.4633 15.08842853100331,6917.872,95.437,540.733,538.74,0.0
52283.0,STARLINK-3789,PAYLOAD,2024-02-13 20:36:11,15.08847276,0.000144,53.2164,257.6915,83.212,276.9035,1.4072e-05,-6.4e-07,0.0,0 STARLINK-3789,1 52283U 22041Y   24044.85847084 -.00000064  00000-0  14072-4 0  9996,2 52283  53.2164 257.6915 0001440  83.2120 276.9035 15.08847276100419,6917.858,95.437,540.719,538.727,0.0
52283.0,STARLINK-3789,PAYLOAD,2024-02-14 20:26:58,15.08843295,0.0001348,53.2159,253.2299,91.5685,268.5462,0.00010484,1.381e-05,0.0,0 STARLINK-3789,1 52283U 22041Y   24045.85206978  .00001381  00000-0  10484-3 0  9992,2 52283  53.2159 253.2299 0001348  91.5685 268.5462 15.08843295101784,6917.87,95.437,540.668,538.803,0.0
52283.0,STARLINK-3789,PAYLOAD,2024-02-14 23:37:45,15.08843571,0.000134,53.2159,252.6352,91.4587,268.6558,0.00010362,1.362e-05,0.0,0 STARLINK-3789,1 52283U 22041Y   24045.98454955  .00001362  00000-0  10362-3 0  9990,2 52283  53.2159 252.6352 0001340  91.4587 268.6558 15.08843571100580,6917.869,95.437,540.661,538.807,0.0
52283.0,STARLINK-3789,PAYLOAD,2024-02-15 20:17:46,15.08840073,0.0001295,53.2158,248.7692,93.1054,267.0087,4.3953e-05,4.12e-06,0.0,0 STARLINK-3789,1 52283U 22041Y   24046.84567396  .00000412  00000-0  43953-4 0  9998,2 52283  53.2158 248.7692 0001295  93.1054 267.0087 15.08840073101933,6917.88,95.438,540.641,538.849,0.0
52283.0,STARLINK-3789,PAYLOAD,2024-02-15 23:28:32,15.08827233,0.000142,53.2157,248.1745,88.8367,271.2788,0.00021411,3.12e-05,0.0,0 STARLINK-3789,1 52283U 22041Y   24046.97815772  .00003120  00000-0  21411-3 0  9999,2 52283  53.2157 248.1745 0001420  88.8367 271.2788 15.08827233101953,6917.919,95.438,540.767,538.802,0.0
